{
"type": "FeatureCollection",
"crs": { "type": "name", "properties": { "name": "urn:ogc:def:crs:OGC:1.3:CRS84" } },
                                                                                
"features": [
{ "type": "Feature", "properties": { "STAT_NUM": 80, "ADDR": "1841 N Bonneville Road", "CITY": "Orlando", "STATE": "FL", "ZIP_CODE": 32826, "JURIS": "Orange County", "OC_NUM": "80" }, "geometry": { "type": "Point", "coordinates": [ -81.186754180136418, 28.571770476407174 ] } },
{ "type": "Feature", "properties": { "STAT_NUM": 55, "ADDR": "801 Greenway Professional Ct", "CITY": "Orlando", "STATE": "FL", "ZIP_CODE": 32824, "JURIS": "Orange County", "OC_NUM": "55" }, "geometry": { "type": "Point", "coordinates": [ -81.365667770776668, 28.37164578785621 ] } },
{ "type": "Feature", "properties": { "STAT_NUM": 3, "ADDR": "13521 Foxcrest Boulevard", "CITY": "Winter Garden", "STATE": "FL", "ZIP_CODE": 34787, "JURIS": "Winter Garden", "OC_NUM": "22" }, "geometry": { "type": "Point", "coordinates": [ -81.582154858990123, 28.530345180109848 ] } },
{ "type": "Feature", "properties": { "STAT_NUM": 36, "ADDR": "12252 S State Road 535", "CITY": "Orlando", "STATE": "FL", "ZIP_CODE": 32836, "JURIS": "Orange County", "OC_NUM": "36" }, "geometry": { "type": "Point", "coordinates": [ -81.518298313827827, 28.388469797029106 ] } },
{ "type": "Feature", "properties": { "STAT_NUM": 1, "ADDR": "131 E Palmetto St", "CITY": "Winter Garden", "STATE": "FL", "ZIP_CODE": 34787, "JURIS": "Winter Garden", "OC_NUM": "24" }, "geometry": { "type": "Point", "coordinates": [ -81.582343263227301, 28.55510322728226 ] } },
{ "type": "Feature", "properties": { "STAT_NUM": 72, "ADDR": "3705 S Conway Road", "CITY": "Orlando", "STATE": "FL", "ZIP_CODE": 32812, "JURIS": "Orange County", "OC_NUM": "72" }, "geometry": { "type": "Point", "coordinates": [ -81.330286825476634, 28.499217644648059 ] } },
{ "type": "Feature", "properties": { "STAT_NUM": 52, "ADDR": "4765 W Sand Lake Road", "CITY": "Orlando", "STATE": "FL", "ZIP_CODE": 32819, "JURIS": "Orange County", "OC_NUM": "52" }, "geometry": { "type": "Point", "coordinates": [ -81.441507356220299, 28.450832600790516 ] } },
{ "type": "Feature", "properties": { "STAT_NUM": 10, "ADDR": "5655 W Vineland Rd", "CITY": "Orlando", "STATE": "FL", "ZIP_CODE": 32819, "JURIS": "Orlando", "OC_NUM": "OR10" }, "geometry": { "type": "Point", "coordinates": [ -81.455939100691808, 28.483469333639022 ] } },
{ "type": "Feature", "properties": { "STAT_NUM": 35, "ADDR": "7435 Winter Garden Vineland Road", "CITY": "Windermere", "STATE": "FL", "ZIP_CODE": 34786, "JURIS": "Orange County", "OC_NUM": "35" }, "geometry": { "type": "Point", "coordinates": [ -81.561430199592905, 28.458914707123789 ] } },
{ "type": "Feature", "properties": { "STAT_NUM": 73, "ADDR": "811 1st Street", "CITY": "Orlando", "STATE": "FL", "ZIP_CODE": 32824, "JURIS": "Orange County", "OC_NUM": "73" }, "geometry": { "type": "Point", "coordinates": [ -81.368160397121841, 28.431854673906511 ] } },
{ "type": "Feature", "properties": { "STAT_NUM": 57, "ADDR": "6014 Destination Parkway", "CITY": "Orlando", "STATE": "FL", "ZIP_CODE": 32819, "JURIS": "Orange County", "OC_NUM": "57" }, "geometry": { "type": "Point", "coordinates": [ -81.458988966082117, 28.423442060066932 ] } },
{ "type": "Feature", "properties": { "STAT_NUM": 83, "ADDR": "11950 E Lake Underhill Road", "CITY": "Orlando", "STATE": "FL", "ZIP_CODE": 32825, "JURIS": "Orange County", "OC_NUM": "83" }, "geometry": { "type": "Point", "coordinates": [ -81.212078868923896, 28.545939335577142 ] } },
{ "type": "Feature", "properties": { "STAT_NUM": 30, "ADDR": "34 S Hastings Street", "CITY": "Orlando", "STATE": "FL", "ZIP_CODE": 32835, "JURIS": "Orange County", "OC_NUM": "30" }, "geometry": { "type": "Point", "coordinates": [ -81.459924351517799, 28.540595748032985 ] } },
{ "type": "Feature", "properties": { "STAT_NUM": 56, "ADDR": "13303 International Drive", "CITY": "Orlando", "STATE": "FL", "ZIP_CODE": 32821, "JURIS": "Orange County", "OC_NUM": "56" }, "geometry": { "type": "Point", "coordinates": [ -81.486759961465893, 28.375835410574581 ] } },
{ "type": "Feature", "properties": { "STAT_NUM": 50, "ADDR": "1415 W 29th Street", "CITY": "Orlando", "STATE": "FL", "ZIP_CODE": 32805, "JURIS": "Orange County", "OC_NUM": "50" }, "geometry": { "type": "Point", "coordinates": [ -81.399937785229454, 28.512950557445123 ] } },
{ "type": "Feature", "properties": { "STAT_NUM": 54, "ADDR": "6500 W Central Florida Parkway", "CITY": "Orlando", "STATE": "FL", "ZIP_CODE": 32821, "JURIS": "Orange County", "OC_NUM": "54" }, "geometry": { "type": "Point", "coordinates": [ -81.464936403707185, 28.403659115276827 ] } },
{ "type": "Feature", "properties": { "STAT_NUM": 1, "ADDR": "5606 S Perimeter Rd", "CITY": "Orlando", "STATE": "FL", "ZIP_CODE": 32827, "JURIS": "GOAA", "OC_NUM": "GOAA1" }, "geometry": { "type": "Point", "coordinates": [ -81.311032455357179, 28.421277856062254 ] } },
{ "type": "Feature", "properties": { "STAT_NUM": 77, "ADDR": "11501 Moss Park Av", "CITY": "Orlando", "STATE": "FL", "ZIP_CODE": 32832, "JURIS": "Orange County", "OC_NUM": "77" }, "geometry": { "type": "Point", "coordinates": [ -81.205506870933689, 28.39932900971948 ] } },
{ "type": "Feature", "properties": { "STAT_NUM": 32, "ADDR": "14932 E Orange Lake Blvd", "CITY": "Kissimmee", "STATE": "FL", "ZIP_CODE": 34787, "JURIS": "Orange County", "OC_NUM": "32" }, "geometry": { "type": "Point", "coordinates": [ -81.614289948895433, 28.348757706171256 ] } },
{ "type": "Feature", "properties": { "STAT_NUM": 8, "ADDR": "6651 Shoalcreek Dr", "CITY": "Orlando", "STATE": "FL", "ZIP_CODE": 32812, "JURIS": "Orlando", "OC_NUM": "OR8" }, "geometry": { "type": "Point", "coordinates": [ -81.315703374913653, 28.466994394095853 ] } },
{ "type": "Feature", "properties": { "STAT_NUM": 81, "ADDR": "901 S Econlockhatchee Trail", "CITY": "Orlando", "STATE": "FL", "ZIP_CODE": 32825, "JURIS": "Orange County", "OC_NUM": "81" }, "geometry": { "type": "Point", "coordinates": [ -81.252085258970524, 28.531448119129326 ] } },
{ "type": "Feature", "properties": { "STAT_NUM": 27, "ADDR": "2248 Novella Eliza Lane", "CITY": "Apopka", "STATE": "FL", "ZIP_CODE": 32712, "JURIS": "Orange County", "OC_NUM": "27" }, "geometry": { "type": "Point", "coordinates": [ -81.469601466014055, 28.691348522860711 ] } },
{ "type": "Feature", "properties": { "STAT_NUM": 17, "ADDR": "3691 Millenia Bv", "CITY": "Orlando", "STATE": "FL", "ZIP_CODE": 32839, "JURIS": "Orlando", "OC_NUM": "OR17" }, "geometry": { "type": "Point", "coordinates": [ -81.421418389756312, 28.493842288191793 ] } },
{ "type": "Feature", "properties": { "STAT_NUM": 12, "ADDR": "1588 Park Center Dr", "CITY": "Orlando", "STATE": "FL", "ZIP_CODE": 32835, "JURIS": "Orlando", "OC_NUM": "OR12" }, "geometry": { "type": "Point", "coordinates": [ -81.469563740665521, 28.523567867168587 ] } },
{ "type": "Feature", "properties": { "STAT_NUM": 1, "ADDR": "175 E 5th St", "CITY": "Apopka", "STATE": "FL", "ZIP_CODE": 32703, "JURIS": "Apopka", "OC_NUM": "AP1" }, "geometry": { "type": "Point", "coordinates": [ -81.508439367794452, 28.672296689895489 ] } },
{ "type": "Feature", "properties": { "STAT_NUM": 1, "ADDR": "78 W Central Bv", "CITY": "Orlando", "STATE": "FL", "ZIP_CODE": 32801, "JURIS": "Orlando", "OC_NUM": "OR1" }, "geometry": { "type": "Point", "coordinates": [ -81.380459320291948, 28.541828635927303 ] } },
{ "type": "Feature", "properties": { "STAT_NUM": 14, "ADDR": "5450 S Econlockhatchee Tl", "CITY": "Orlando", "STATE": "FL", "ZIP_CODE": 32829, "JURIS": "Orlando", "OC_NUM": "OR14" }, "geometry": { "type": "Point", "coordinates": [ -81.250553655317887, 28.484170365049067 ] } },
{ "type": "Feature", "properties": { "STAT_NUM": 3, "ADDR": "1000 Floridian Wy", "CITY": "Lake Buena Vista", "STATE": "FL", "ZIP_CODE": 32830, "JURIS": "Reedy Creek", "OC_NUM": "RC3" }, "geometry": { "type": "Point", "coordinates": [ -81.579625793741485, 28.423364688405638 ] } },
{ "type": "Feature", "properties": { "STAT_NUM": 63, "ADDR": "2450 N Goldenrod Road", "CITY": "Orlando", "STATE": "FL", "ZIP_CODE": 32807, "JURIS": "Orange County", "OC_NUM": "63" }, "geometry": { "type": "Point", "coordinates": [ -81.286737681013662, 28.58078223969196 ] } },
{ "type": "Feature", "properties": { "STAT_NUM": 4, "ADDR": "2750 W Orange Av", "CITY": "Apopka", "STATE": "FL", "ZIP_CODE": 32703, "JURIS": "Apopka", "OC_NUM": "AP4" }, "geometry": { "type": "Point", "coordinates": [ -81.554574602738811, 28.688768312707612 ] } },
{ "type": "Feature", "properties": { "STAT_NUM": 82, "ADDR": "500 N Story Partin Road", "CITY": "Orlando", "STATE": "FL", "ZIP_CODE": 32833, "JURIS": "Orange County", "OC_NUM": "82" }, "geometry": { "type": "Point", "coordinates": [ -81.129057802802862, 28.554823483172008 ] } },
{ "type": "Feature", "properties": { "STAT_NUM": 4, "ADDR": "900 N Fern Creek Av", "CITY": "Orlando", "STATE": "FL", "ZIP_CODE": 32803, "JURIS": "Orlando", "OC_NUM": "OR4" }, "geometry": { "type": "Point", "coordinates": [ -81.360686512573807, 28.557010841434394 ] } },
{ "type": "Feature", "properties": { "STAT_NUM": 13, "ADDR": "3464 5th St", "CITY": "Orlando", "STATE": "FL", "ZIP_CODE": 32827, "JURIS": "Orlando", "OC_NUM": "OR13" }, "geometry": { "type": "Point", "coordinates": [ -81.340205132674512, 28.435139613634171 ] } },
{ "type": "Feature", "properties": { "STAT_NUM": 71, "ADDR": "4405 S Goldenrod Road", "CITY": "Orlando", "STATE": "FL", "ZIP_CODE": 32822, "JURIS": "Orange County", "OC_NUM": "71" }, "geometry": { "type": "Point", "coordinates": [ -81.284843419533289, 28.482354219294791 ] } },
{ "type": "Feature", "properties": { "STAT_NUM": 20, "ADDR": "3200 N Washington Street", "CITY": "Zellwood", "STATE": "FL", "ZIP_CODE": 32798, "JURIS": "Orange County", "OC_NUM": "20" }, "geometry": { "type": "Point", "coordinates": [ -81.602890776836645, 28.730171408135565 ] } },
{ "type": "Feature", "properties": { "STAT_NUM": 86, "ADDR": "2502 Babbitt Av", "CITY": "Orlando", "STATE": "FL", "ZIP_CODE": 32833, "JURIS": "Orange County", "OC_NUM": "86" }, "geometry": { "type": "Point", "coordinates": [ -81.075342757196438, 28.500024941699536 ] } },
{ "type": "Feature", "properties": { "STAT_NUM": 62, "ADDR": "300 S Lakemont Av", "CITY": "Winter Park", "STATE": "FL", "ZIP_CODE": 32792, "JURIS": "Winter Park", "OC_NUM": "62" }, "geometry": { "type": "Point", "coordinates": [ -81.327479362777439, 28.594414129712067 ] } },
{ "type": "Feature", "properties": { "STAT_NUM": 76, "ADDR": "11351 S Narcoossee Road", "CITY": "Orlando", "STATE": "FL", "ZIP_CODE": 32832, "JURIS": "Orange County", "OC_NUM": "76" }, "geometry": { "type": "Point", "coordinates": [ -81.243807925231906, 28.402065481518822 ] } },
{ "type": "Feature", "properties": { "STAT_NUM": 34, "ADDR": "4000 S State Road 535", "CITY": "Orlando", "STATE": "FL", "ZIP_CODE": 32787, "JURIS": "Orange County", "OC_NUM": "34" }, "geometry": { "type": "Point", "coordinates": [ -81.587471024726639, 28.501636255502998 ] } },
{ "type": "Feature", "properties": { "STAT_NUM": 2, "ADDR": "4170 Express St", "CITY": "Orlando", "STATE": "FL", "ZIP_CODE": 32827, "JURIS": "GOAA", "OC_NUM": "GOAA2" }, "geometry": { "type": "Point", "coordinates": [ -81.331897567096377, 28.42643458773561 ] } },
{ "type": "Feature", "properties": { "STAT_NUM": 66, "ADDR": "996 N Semoran Boulevard", "CITY": "Orlando", "STATE": "FL", "ZIP_CODE": 32807, "JURIS": "Orange County", "OC_NUM": "66" }, "geometry": { "type": "Point", "coordinates": [ -81.311326900452556, 28.559638993756142 ] } },
{ "type": "Feature", "properties": { "STAT_NUM": 84, "ADDR": "1221 N Fort Christmas Road", "CITY": "Christmas", "STATE": "FL", "ZIP_CODE": 32709, "JURIS": "Orange County", "OC_NUM": "84" }, "geometry": { "type": "Point", "coordinates": [ -81.019917445430167, 28.560892162726201 ] } },
{ "type": "Feature", "properties": { "STAT_NUM": 51, "ADDR": "1700 W Oakridge Road", "CITY": "Orlando", "STATE": "FL", "ZIP_CODE": 32809, "JURIS": "Orange County", "OC_NUM": "51" }, "geometry": { "type": "Point", "coordinates": [ -81.401294601051617, 28.472129061443773 ] } },
{ "type": "Feature", "properties": { "STAT_NUM": 70, "ADDR": "1027 E Wallace Road", "CITY": "Orlando", "STATE": "FL", "ZIP_CODE": 32809, "JURIS": "Orange County", "OC_NUM": "70" }, "geometry": { "type": "Point", "coordinates": [ -81.365081330377635, 28.47167112065171 ] } },
{ "type": "Feature", "properties": { "STAT_NUM": 5, "ADDR": "1818 S Orange Av", "CITY": "Orlando", "STATE": "FL", "ZIP_CODE": 32806, "JURIS": "Orlando", "OC_NUM": "OR5" }, "geometry": { "type": "Point", "coordinates": [ -81.376634703186141, 28.52053593085596 ] } },
{ "type": "Feature", "properties": { "STAT_NUM": 85, "ADDR": "13801 Townsend Drive", "CITY": "Orlando", "STATE": "FL", "ZIP_CODE": 32828, "JURIS": "Orange County", "OC_NUM": "85" }, "geometry": { "type": "Point", "coordinates": [ -81.181519427922666, 28.511515145100809 ] } },
{ "type": "Feature", "properties": { "STAT_NUM": 64, "ADDR": "1439 Howell Branch Rd", "CITY": "Winter Park", "STATE": "FL", "ZIP_CODE": 32789, "JURIS": "Winter Park", "OC_NUM": "64" }, "geometry": { "type": "Point", "coordinates": [ -81.334450457479107, 28.625171517839171 ] } },
{ "type": "Feature", "properties": { "STAT_NUM": 31, "ADDR": "6116 Apopka Vineland Road", "CITY": "Orlando", "STATE": "FL", "ZIP_CODE": 32819, "JURIS": "Orange County", "OC_NUM": "31" }, "geometry": { "type": "Point", "coordinates": [ -81.5016574112922, 28.461763365585284 ] } },
{ "type": "Feature", "properties": { "STAT_NUM": 9, "ADDR": "3680 Mercy Dr", "CITY": "Orlando", "STATE": "FL", "ZIP_CODE": 32808, "JURIS": "Orlando", "OC_NUM": "OR9" }, "geometry": { "type": "Point", "coordinates": [ -81.431434104320999, 28.588615218975402 ] } },
{ "type": "Feature", "properties": { "STAT_NUM": 58, "ADDR": "2900 Deerfield Boulevard", "CITY": "Orlando", "STATE": "FL", "ZIP_CODE": 32837, "JURIS": "Orange County", "OC_NUM": "58" }, "geometry": { "type": "Point", "coordinates": [ -81.423471041230428, 28.380892471953572 ] } },
{ "type": "Feature", "properties": { "STAT_NUM": 28, "ADDR": "3250 Clarcona Road", "CITY": "Apopka", "STATE": "FL", "ZIP_CODE": 32703, "JURIS": "Orange County", "OC_NUM": "28" }, "geometry": { "type": "Point", "coordinates": [ -81.500873466458543, 28.636095877354311 ] } },
{ "type": "Feature", "properties": { "STAT_NUM": 11, "ADDR": "4911 Curry Ford Rd", "CITY": "Orlando", "STATE": "FL", "ZIP_CODE": 32812, "JURIS": "Orlando", "OC_NUM": "OR11" }, "geometry": { "type": "Point", "coordinates": [ -81.325159653754199, 28.524648137353324 ] } },
{ "type": "Feature", "properties": { "STAT_NUM": 3, "ADDR": "2406 N Elizabeth Av", "CITY": "Orlando", "STATE": "FL", "ZIP_CODE": 32804, "JURIS": "Orlando", "OC_NUM": "OR3" }, "geometry": { "type": "Point", "coordinates": [ -81.385115762175218, 28.573165456944576 ] } },
{ "type": "Feature", "properties": { "STAT_NUM": 3, "ADDR": "8801 Heintzelman Bv", "CITY": "Orlando", "STATE": "FL", "ZIP_CODE": 32827, "JURIS": "GOAA", "OC_NUM": "GOAA3" }, "geometry": { "type": "Point", "coordinates": [ -81.287138836467648, 28.440897182159869 ] } },
{ "type": "Feature", "properties": { "STAT_NUM": 43, "ADDR": "2700 N Apopka Vineland Road", "CITY": "Orlando", "STATE": "FL", "ZIP_CODE": 32818, "JURIS": "Orange County", "OC_NUM": "43" }, "geometry": { "type": "Point", "coordinates": [ -81.491762306918929, 28.579543758754081 ] } },
{ "type": "Feature", "properties": { "STAT_NUM": 2, "ADDR": "302 W Welch Rd", "CITY": "Apopka", "STATE": "FL", "ZIP_CODE": 32712, "JURIS": "Apopka", "OC_NUM": "AP2" }, "geometry": { "type": "Point", "coordinates": [ -81.513919379494666, 28.705690909074306 ] } },
{ "type": "Feature", "properties": { "STAT_NUM": 2, "ADDR": "700 W Central Bv", "CITY": "Orlando", "STATE": "FL", "ZIP_CODE": 32801, "JURIS": "Orlando", "OC_NUM": "OR2" }, "geometry": { "type": "Point", "coordinates": [ -81.389320706730629, 28.541676332926873 ] } },
{ "type": "Feature", "properties": { "STAT_NUM": 33, "ADDR": "1700 S Apopka Vineland Road", "CITY": "Orlando", "STATE": "FL", "ZIP_CODE": 32835, "JURIS": "Orange County", "OC_NUM": "33" }, "geometry": { "type": "Point", "coordinates": [ -81.50911736945676, 28.519809076177143 ] } },
{ "type": "Feature", "properties": { "STAT_NUM": 53, "ADDR": "1270 W LaQuinta Drive", "CITY": "Orlando", "STATE": "FL", "ZIP_CODE": 32809, "JURIS": "Orange County", "OC_NUM": "53" }, "geometry": { "type": "Point", "coordinates": [ -81.400891251097107, 28.440377273552382 ] } },
{ "type": "Feature", "properties": { "STAT_NUM": 61, "ADDR": "343 W Canton Av", "CITY": "Winter Park", "STATE": "FL", "ZIP_CODE": 32789, "JURIS": "Winter Park", "OC_NUM": "61" }, "geometry": { "type": "Point", "coordinates": [ -81.354519561758352, 28.600644462637675 ] } },
{ "type": "Feature", "properties": { "STAT_NUM": 16, "ADDR": "12375 Lake Nona Gateway Rd", "CITY": "Orlando", "STATE": "FL", "ZIP_CODE": 32827, "JURIS": "Orlando", "OC_NUM": "OR16" }, "geometry": { "type": "Point", "coordinates": [ -81.27846500815015, 28.386881554932458 ] } },
{ "type": "Feature", "properties": { "STAT_NUM": 4, "ADDR": "1920 E Buena Vista Dr", "CITY": "Lake Buena Vista", "STATE": "FL", "ZIP_CODE": 32830, "JURIS": "Reedy Creek", "OC_NUM": "RC4" }, "geometry": { "type": "Point", "coordinates": [ -81.5179744895798, 28.378923658925753 ] } },
{ "type": "Feature", "properties": { "STAT_NUM": 47, "ADDR": "1847 Fennell St", "CITY": "Maitland", "STATE": "FL", "ZIP_CODE": 32751, "JURIS": "Maitland", "OC_NUM": "47" }, "geometry": { "type": "Point", "coordinates": [ -81.401628187396113, 28.627765090022841 ] } },
{ "type": "Feature", "properties": { "STAT_NUM": 42, "ADDR": "5420 W Silver Star Road", "CITY": "Orlando", "STATE": "FL", "ZIP_CODE": 32808, "JURIS": "Orange County", "OC_NUM": "42" }, "geometry": { "type": "Point", "coordinates": [ -81.454623893402129, 28.577169838063337 ] } },
{ "type": "Feature", "properties": { "STAT_NUM": 6, "ADDR": "3113 E Robinson St", "CITY": "Orlando", "STATE": "FL", "ZIP_CODE": 32803, "JURIS": "Orlando", "OC_NUM": "OR6" }, "geometry": { "type": "Point", "coordinates": [ -81.344168414942118, 28.546489277021941 ] } },
{ "type": "Feature", "properties": { "STAT_NUM": 1, "ADDR": "563 S Bluford Av", "CITY": "Ocoee", "STATE": "FL", "ZIP_CODE": 34761, "JURIS": "Ocoee", "OC_NUM": "25" }, "geometry": { "type": "Point", "coordinates": [ -81.544801237706992, 28.56210791797081 ] } },
{ "type": "Feature", "properties": { "STAT_NUM": 1, "ADDR": "651 E Buena Vista Dr", "CITY": "Bay Lake", "STATE": "FL", "ZIP_CODE": 32830, "JURIS": "Reedy Creek", "OC_NUM": "RC1" }, "geometry": { "type": "Point", "coordinates": [ -81.547189465357874, 28.365509070785134 ] } },
{ "type": "Feature", "properties": { "STAT_NUM": 15, "ADDR": "10199 Narcoossee Rd", "CITY": "Orlando", "STATE": "FL", "ZIP_CODE": 32823, "JURIS": "Orlando", "OC_NUM": "OR15" }, "geometry": { "type": "Point", "coordinates": [ -81.243013491129105, 28.418718392358908 ] } },
{ "type": "Feature", "properties": { "STAT_NUM": 4, "ADDR": "1500 N Clarke Rd", "CITY": "Ocoee", "STATE": "FL", "ZIP_CODE": 34761, "JURIS": "Ocoee", "OC_NUM": "26" }, "geometry": { "type": "Point", "coordinates": [ -81.513821709914069, 28.59059603500102 ] } },
{ "type": "Feature", "properties": { "STAT_NUM": 3, "ADDR": "801 Piedmont Wekiwa Rd", "CITY": "Apopka", "STATE": "FL", "ZIP_CODE": 32703, "JURIS": "Apopka", "OC_NUM": "AP3" }, "geometry": { "type": "Point", "coordinates": [ -81.467607285629569, 28.667999919285577 ] } },
{ "type": "Feature", "properties": { "STAT_NUM": 7, "ADDR": "601 S Goldwyn Av", "CITY": "Orlando", "STATE": "FL", "ZIP_CODE": 32805, "JURIS": "Orlando", "OC_NUM": "OR7" }, "geometry": { "type": "Point", "coordinates": [ -81.417539567968447, 28.533951534718131 ] } },
{ "type": "Feature", "properties": { "STAT_NUM": 2, "ADDR": "1029 Fullers Cross Rd", "CITY": "Winter Garden", "STATE": "FL", "ZIP_CODE": 34787, "JURIS": "Winter Garden", "OC_NUM": "23" }, "geometry": { "type": "Point", "coordinates": [ -81.56873258991412, 28.591492309471096 ] } },
{ "type": "Feature", "properties": { "STAT_NUM": 3, "ADDR": "2515 Maguire Rd", "CITY": "Ocoee", "STATE": "FL", "ZIP_CODE": 34761, "JURIS": "Ocoee", "OC_NUM": "39" }, "geometry": { "type": "Point", "coordinates": [ -81.540749838812673, 28.533777042255483 ] } },
{ "type": "Feature", "properties": { "STAT_NUM": 41, "ADDR": "4412 N Fairview Avenue", "CITY": "Orlando", "STATE": "FL", "ZIP_CODE": 32804, "JURIS": "Orange County", "OC_NUM": "41" }, "geometry": { "type": "Point", "coordinates": [ -81.39784773973922, 28.597255850361925 ] } },
{ "type": "Feature", "properties": { "STAT_NUM": 37, "ADDR": "540 East Oakland Avenue", "CITY": "Oakland", "STATE": "FL", "ZIP_CODE": 34787, "JURIS": "Orange County", "OC_NUM": "37" }, "geometry": { "type": "Point", "coordinates": [ -81.620888347237951, 28.554288173171205 ] } },
{ "type": "Feature", "properties": { "STAT_NUM": 45, "ADDR": "1776 Independence Ln", "CITY": "Maitland", "STATE": "FL", "ZIP_CODE": 32751, "JURIS": "Maitland", "OC_NUM": "45" }, "geometry": { "type": "Point", "coordinates": [ -81.365154259229755, 28.625938289976951 ] } },
{ "type": "Feature", "properties": { "STAT_NUM": 29, "ADDR": "225 E Kelly Park Road", "CITY": "Apopka", "STATE": "FL", "ZIP_CODE": 32712, "JURIS": "Orange County", "OC_NUM": "29" }, "geometry": { "type": "Point", "coordinates": [ -81.505093207541577, 28.758786543511174 ] } },
{ "type": "Feature", "properties": { "STAT_NUM": 40, "ADDR": "5570 W Beggs Road", "CITY": "Orlando", "STATE": "FL", "ZIP_CODE": 32810, "JURIS": "Orange County", "OC_NUM": "40" }, "geometry": { "type": "Point", "coordinates": [ -81.447525123966969, 28.625134467879175 ] } },
{ "type": "Feature", "properties": { "STAT_NUM": 65, "ADDR": "4999 N Orion Boulevard", "CITY": "Orlando", "STATE": "FL", "ZIP_CODE": 32816, "JURIS": "Orange County", "OC_NUM": "65" }, "geometry": { "type": "Point", "coordinates": [ -81.191457785809234, 28.611602923027267 ] } }
]
}
